CCSDS_OMM_VERS = 2.0
CREATION_DATE  = 
ORIGINATOR     = 

OBJECT_NAME    = STARLINK-36861
OBJECT_ID      = 2026-037C
CENTER_NAME    = EARTH
REF_FRAME      = TEME
TIME_SYSTEM    = UTC
MEAN_ELEMENT_THEORY = SGP/SGP4

EPOCH          = 2026-03-07T04:00:03.000096
MEAN_MOTION    = 15.87519619
ECCENTRICITY   = .0001491
INCLINATION    = 42.9998
RA_OF_ASC_NODE = 214.0590
ARG_OF_PERICENTER = 269.9712
MEAN_ANOMALY   = 6.8128

EPHEMERIS_TYPE = 0
CLASSIFICATION_TYPE = U
NORAD_CAT_ID   = 67934
ELEMENT_SET_NO = 999
REV_AT_EPOCH   = 279
BSTAR          = -.62824E-2
MEAN_MOTION_DOT = -.152329E-1
MEAN_MOTION_DDOT = 0

CCSDS_OMM_VERS = 2.0
CREATION_DATE  = 
ORIGINATOR     = 

OBJECT_NAME    = STARLINK-36860
OBJECT_ID      = 2026-037D
CENTER_NAME    = EARTH
REF_FRAME      = TEME
TIME_SYSTEM    = UTC
MEAN_ELEMENT_THEORY = SGP/SGP4

EPOCH          = 2026-03-07T04:00:03.000096
MEAN_MOTION    = 15.87623346
ECCENTRICITY   = .0001538
INCLINATION    = 42.9997
RA_OF_ASC_NODE = 214.0501
ARG_OF_PERICENTER = 272.0549
MEAN_ANOMALY   = 8.4184

EPHEMERIS_TYPE = 0
CLASSIFICATION_TYPE = U
NORAD_CAT_ID   = 67935
ELEMENT_SET_NO = 999
REV_AT_EPOCH   = 279
BSTAR          = -.62726E-2
MEAN_MOTION_DOT = -.1528227E-1
MEAN_MOTION_DDOT = 0

CCSDS_OMM_VERS = 2.0
CREATION_DATE  = 
ORIGINATOR     = 

OBJECT_NAME    = STARLINK-36848
OBJECT_ID      = 2026-037E
CENTER_NAME    = EARTH
REF_FRAME      = TEME
TIME_SYSTEM    = UTC
MEAN_ELEMENT_THEORY = SGP/SGP4

EPOCH          = 2026-03-07T04:00:03.000096
MEAN_MOTION    = 15.87853509
ECCENTRICITY   = .0001363
INCLINATION    = 42.9997
RA_OF_ASC_NODE = 214.0313
ARG_OF_PERICENTER = 269.3647
MEAN_ANOMALY   = 18.2662

EPHEMERIS_TYPE = 0
CLASSIFICATION_TYPE = U
NORAD_CAT_ID   = 67936
ELEMENT_SET_NO = 999
REV_AT_EPOCH   = 279
BSTAR          = -.62246E-2
MEAN_MOTION_DOT = -.1533359E-1
MEAN_MOTION_DDOT = 0

CCSDS_OMM_VERS = 2.0
CREATION_DATE  = 
ORIGINATOR     = 

OBJECT_NAME    = STARLINK-36370
OBJECT_ID      = 2026-037F
CENTER_NAME    = EARTH
REF_FRAME      = TEME
TIME_SYSTEM    = UTC
MEAN_ELEMENT_THEORY = SGP/SGP4

EPOCH          = 2026-03-07T04:00:03.000096
MEAN_MOTION    = 15.87731433
ECCENTRICITY   = .0001625
INCLINATION    = 43.0000
RA_OF_ASC_NODE = 214.0409
ARG_OF_PERICENTER = 270.5822
MEAN_ANOMALY   = 13.6142

EPHEMERIS_TYPE = 0
CLASSIFICATION_TYPE = U
NORAD_CAT_ID   = 67937
ELEMENT_SET_NO = 999
REV_AT_EPOCH   = 279
BSTAR          = -.63359E-2
MEAN_MOTION_DOT = -.154928E-1
MEAN_MOTION_DDOT = 0

CCSDS_OMM_VERS = 2.0
CREATION_DATE  = 
ORIGINATOR     = 

OBJECT_NAME    = STARLINK-36371
OBJECT_ID      = 2026-037G
CENTER_NAME    = EARTH
REF_FRAME      = TEME
TIME_SYSTEM    = UTC
MEAN_ELEMENT_THEORY = SGP/SGP4

EPOCH          = 2026-03-07T04:00:03.000096
MEAN_MOTION    = 15.88010753
ECCENTRICITY   = .0001556
INCLINATION    = 42.9998
RA_OF_ASC_NODE = 214.0228
ARG_OF_PERICENTER = 270.7111
MEAN_ANOMALY   = 20.1902

EPHEMERIS_TYPE = 0
CLASSIFICATION_TYPE = U
NORAD_CAT_ID   = 67938
ELEMENT_SET_NO = 999
REV_AT_EPOCH   = 279
BSTAR          = -.62348E-2
MEAN_MOTION_DOT = -.1546482E-1
MEAN_MOTION_DDOT = 0

CCSDS_OMM_VERS = 2.0
CREATION_DATE  = 
ORIGINATOR     = 

OBJECT_NAME    = STARLINK-36246
OBJECT_ID      = 2026-037H
CENTER_NAME    = EARTH
REF_FRAME      = TEME
TIME_SYSTEM    = UTC
MEAN_ELEMENT_THEORY = SGP/SGP4

EPOCH          = 2026-03-07T04:00:03.000096
MEAN_MOTION    = 15.88159689
ECCENTRICITY   = .0001493
INCLINATION    = 42.9998
RA_OF_ASC_NODE = 214.0152
ARG_OF_PERICENTER = 267.9963
MEAN_ANOMALY   = 26.1519

EPHEMERIS_TYPE = 0
CLASSIFICATION_TYPE = U
NORAD_CAT_ID   = 67939
ELEMENT_SET_NO = 999
REV_AT_EPOCH   = 270
BSTAR          = -.61796E-2
MEAN_MOTION_DOT = -.1544574E-1
MEAN_MOTION_DDOT = 0

CCSDS_OMM_VERS = 2.0
CREATION_DATE  = 
ORIGINATOR     = 

OBJECT_NAME    = STARLINK-36907
OBJECT_ID      = 2026-037J
CENTER_NAME    = EARTH
REF_FRAME      = TEME
TIME_SYSTEM    = UTC
MEAN_ELEMENT_THEORY = SGP/SGP4

EPOCH          = 2026-03-07T04:00:03.000096
MEAN_MOTION    = 15.88522765
ECCENTRICITY   = .0001389
INCLINATION    = 42.9998
RA_OF_ASC_NODE = 213.9883
ARG_OF_PERICENTER = 268.1161
MEAN_ANOMALY   = 36.2759

EPHEMERIS_TYPE = 0
CLASSIFICATION_TYPE = U
NORAD_CAT_ID   = 67940
ELEMENT_SET_NO = 999
REV_AT_EPOCH   = 279
BSTAR          = -.59979E-2
MEAN_MOTION_DOT = -.1528979E-1
MEAN_MOTION_DDOT = 0

CCSDS_OMM_VERS = 2.0
CREATION_DATE  = 
ORIGINATOR     = 

OBJECT_NAME    = STARLINK-36927
OBJECT_ID      = 2026-037K
CENTER_NAME    = EARTH
REF_FRAME      = TEME
TIME_SYSTEM    = UTC
MEAN_ELEMENT_THEORY = SGP/SGP4

EPOCH          = 2026-03-07T04:00:03.000096
MEAN_MOTION    = 15.88783613
ECCENTRICITY   = .0001528
INCLINATION    = 42.9997
RA_OF_ASC_NODE = 213.9716
ARG_OF_PERICENTER = 270.4464
MEAN_ANOMALY   = 40.5469

EPHEMERIS_TYPE = 0
CLASSIFICATION_TYPE = U
NORAD_CAT_ID   = 67941
ELEMENT_SET_NO = 999
REV_AT_EPOCH   = 279
BSTAR          = -.59005E-2
MEAN_MOTION_DOT = -.1493453E-1
MEAN_MOTION_DDOT = 0

CCSDS_OMM_VERS = 2.0
CREATION_DATE  = 
ORIGINATOR     = 

OBJECT_NAME    = STARLINK-36914
OBJECT_ID      = 2026-037L
CENTER_NAME    = EARTH
REF_FRAME      = TEME
TIME_SYSTEM    = UTC
MEAN_ELEMENT_THEORY = SGP/SGP4

EPOCH          = 2026-03-07T04:00:03.000096
MEAN_MOTION    = 15.88236547
ECCENTRICITY   = .0001398
INCLINATION    = 42.9998
RA_OF_ASC_NODE = 214.0052
ARG_OF_PERICENTER = 270.0007
MEAN_ANOMALY   = 27.9265

EPHEMERIS_TYPE = 0
CLASSIFICATION_TYPE = U
NORAD_CAT_ID   = 67942
ELEMENT_SET_NO = 999
REV_AT_EPOCH   = 279
BSTAR          = -.61121E-2
MEAN_MOTION_DOT = -.1534869E-1
MEAN_MOTION_DDOT = 0

CCSDS_OMM_VERS = 2.0
CREATION_DATE  = 
ORIGINATOR     = 

OBJECT_NAME    = STARLINK-36851
OBJECT_ID      = 2026-037M
CENTER_NAME    = EARTH
REF_FRAME      = TEME
TIME_SYSTEM    = UTC
MEAN_ELEMENT_THEORY = SGP/SGP4

EPOCH          = 2026-03-07T04:00:03.000096
MEAN_MOTION    = 15.88375393
ECCENTRICITY   = .0001476
INCLINATION    = 42.9998
RA_OF_ASC_NODE = 213.9970
ARG_OF_PERICENTER = 271.3754
MEAN_ANOMALY   = 29.8103

EPHEMERIS_TYPE = 0
CLASSIFICATION_TYPE = U
NORAD_CAT_ID   = 67943
ELEMENT_SET_NO = 999
REV_AT_EPOCH   = 279
BSTAR          = -.60418E-2
MEAN_MOTION_DOT = -.1528796E-1
MEAN_MOTION_DDOT = 0

CCSDS_OMM_VERS = 2.0
CREATION_DATE  = 
ORIGINATOR     = 

OBJECT_NAME    = STARLINK-36892
OBJECT_ID      = 2026-037N
CENTER_NAME    = EARTH
REF_FRAME      = TEME
TIME_SYSTEM    = UTC
MEAN_ELEMENT_THEORY = SGP/SGP4

EPOCH          = 2026-03-07T04:00:03.000096
MEAN_MOTION    = 15.88657559
ECCENTRICITY   = .000153
INCLINATION    = 42.9997
RA_OF_ASC_NODE = 213.9807
ARG_OF_PERICENTER = 272.0392
MEAN_ANOMALY   = 35.6480

EPHEMERIS_TYPE = 0
CLASSIFICATION_TYPE = U
NORAD_CAT_ID   = 67944
ELEMENT_SET_NO = 999
REV_AT_EPOCH   = 279
BSTAR          = -.59796E-2
MEAN_MOTION_DOT = -.1534213E-1
MEAN_MOTION_DDOT = 0

CCSDS_OMM_VERS = 2.0
CREATION_DATE  = 
ORIGINATOR     = 

OBJECT_NAME    = STARLINK-36908
OBJECT_ID      = 2026-037P
CENTER_NAME    = EARTH
REF_FRAME      = TEME
TIME_SYSTEM    = UTC
MEAN_ELEMENT_THEORY = SGP/SGP4

EPOCH          = 2026-03-07T04:00:03.000096
MEAN_MOTION    = 15.88862382
ECCENTRICITY   = .0001626
INCLINATION    = 42.9998
RA_OF_ASC_NODE = 213.9621
ARG_OF_PERICENTER = 271.1970
MEAN_ANOMALY   = 43.6487

EPHEMERIS_TYPE = 0
CLASSIFICATION_TYPE = U
NORAD_CAT_ID   = 67945
ELEMENT_SET_NO = 999
REV_AT_EPOCH   = 279
BSTAR          = -.59187E-2
MEAN_MOTION_DOT = -.1534537E-1
MEAN_MOTION_DDOT = 0

